[{"OBJECT_NAME":"NEXSAT-1","OBJECT_ID":"2024-024E","EPOCH":"2026-03-09T22:47:24.778176","MEAN_MOTION":15.32166372,"ECCENTRICITY":0.00099795,"INCLINATION":97.3124,"RA_OF_ASC_NODE":144.1918,"ARG_OF_PERICENTER":108.5709,"MEAN_ANOMALY":251.6617,"EPHEMERIS_TYPE":0,"CLASSIFICATION_TYPE":"U","NORAD_CAT_ID":58921,"ELEMENT_SET_NO":999,"REV_AT_EPOCH":11669,"BSTAR":0.00031433612,"MEAN_MOTION_DOT":9.702e-5,"MEAN_MOTION_DDOT":0},{"OBJECT_NAME":"STARLINK-36339","OBJECT_ID":"2026-003G","EPOCH":"2026-03-09T11:47:49.189920","MEAN_MOTION":15.27598668,"ECCENTRICITY":6.474e-5,"INCLINATION":42.9999,"RA_OF_ASC_NODE":228.1797,"ARG_OF_PERICENTER":275.2817,"MEAN_ANOMALY":84.7961,"EPHEMERIS_TYPE":0,"CLASSIFICATION_TYPE":"U","NORAD_CAT_ID":67340,"ELEMENT_SET_NO":999,"REV_AT_EPOCH":879,"BSTAR":0.0014122757,"MEAN_MOTION_DOT":0.00038827,"MEAN_MOTION_DDOT":0}]
